ORBCOMM FM115           
1 41186U 15081H   25152.40552810  .00000872  00000+0  20477-3 0  9994
2 41186  46.9977 114.6119 0001457 315.1284  44.9485 14.62476106505469
ORBCOMM FM108           
1 41187U 15081J   25152.47926185  .00001129  00000+0  27926-3 0  9994
2 41187  47.0033 181.1525 0003661 252.6627 107.3858 14.58134446504583
ORBCOMM FM117           
1 41188U 15081K   25152.17135202  .00000487  00000+0  14122-3 0  9994
2 41188  46.9996 181.3734 0004153 255.9460 104.0964 14.58132894504556
ORBCOMM FM116           
1 41189U 15081L   25151.61206546  .00000823  00000+0  21347-3 0  9994
2 41189  47.0025 273.8626 0001376  86.5546 273.5496 14.58148592503234
